{
    "links": {
        "self": "http://www.neowsapp.com/rest/v1/neo/3645622?api_key=iIulBulltgU6a56xZRHN4H3l9WmuAYTsLGpBGhQ2"
    },
    "id": "3645622",
    "neo_reference_id": "3645622",
    "name": "(2013 PW31)",
    "designation": "2013 PW31",
    "nasa_jpl_url": "http://ssd.jpl.nasa.gov/sbdb.cgi?sstr=3645622",
    "absolute_magnitude_h": 22.8,
    "estimated_diameter": {
        "kilometers": {
            "estimated_diameter_min": 0.0732073989,
            "estimated_diameter_max": 0.1636967205
        },
        "meters": {
            "estimated_diameter_min": 73.2073989347,
            "estimated_diameter_max": 163.696720474
        },
        "miles": {
            "estimated_diameter_min": 0.0454889547,
            "estimated_diameter_max": 0.1017163949
        },
        "feet": {
            "estimated_diameter_min": 240.181762721,
            "estimated_diameter_max": 537.0627483999
        }
    },
    "is_potentially_hazardous_asteroid": false,
    "close_approach_data": [
        {
            "close_approach_date": "1988-06-01",
            "close_approach_date_full": "1988-Jun-01 02:23",
            "epoch_date_close_approach": 581134980000,
            "relative_velocity": {
                "kilometers_per_second": "16.9147436767",
                "kilometers_per_hour": "60893.0772361765",
                "miles_per_hour": "37836.5901304453"
            },
            "miss_distance": {
                "astronomical": "0.4567631507",
                "lunar": "177.6808656223",
                "kilometers": "68330794.439209009",
                "miles": "42458786.8244179642"
            },
            "orbiting_body": "Earth"
        },
        {
            "close_approach_date": "2013-07-10",
            "close_approach_date_full": "2013-Jul-10 09:34",
            "epoch_date_close_approach": 1373448840000,
            "relative_velocity": {
                "kilometers_per_second": "5.9400144699",
                "kilometers_per_hour": "21384.0520914729",
                "miles_per_hour": "13287.2183676155"
            },
            "miss_distance": {
                "astronomical": "0.0986132399",
                "lunar": "38.3605503211",
                "kilometers": "14752330.642839013",
                "miles": "9166673.1971758594"
            },
            "orbiting_body": "Earth"
        },
        {
            "close_approach_date": "2124-08-05",
            "close_approach_date_full": "2124-Aug-05 15:29",
            "epoch_date_close_approach": 4878545340000,
            "relative_velocity": {
                "kilometers_per_second": "8.9547297355",
                "kilometers_per_hour": "32237.0270476658",
                "miles_per_hour": "20030.8349452566"
            },
            "miss_distance": {
                "astronomical": "0.1745312919",
                "lunar": "67.8926725491",
                "kilometers": "26109509.516588253",
                "miles": "16223696.9107857714"
            },
            "orbiting_body": "Earth"
        }
    ],
    "orbital_data": {
        "orbit_id": "6",
        "orbit_determination_date": "2017-04-06 08:45:09",
        "first_observation_date": "2013-06-19",
        "last_observation_date": "2013-08-14",
        "data_arc_in_days": 56,
        "observations_used": 18,
        "orbit_uncertainty": "6",
        "minimum_orbit_intersection": ".100535",
        "jupiter_tisserand_invariant": "3.363",
        "epoch_osculation": "2459000.5",
        "eccentricity": ".5254647144523036",
        "semi_major_axis": "2.339849614607723",
        "inclination": "3.333585268449755",
        "ascending_node_longitude": "146.1236381586015",
        "orbital_period": "1307.315304045266",
        "perihelion_distance": "1.110341205006543",
        "perihelion_argument": "143.8931821841084",
        "aphelion_distance": "3.569358024208903",
        "perihelion_time": "2459099.726034681843",
        "mean_anomaly": "332.6757788462127",
        "mean_motion": ".2753735069772692",
        "equinox": "J2000",
        "orbit_class": {
            "orbit_class_type": "AMO",
            "orbit_class_description": "Near-Earth asteroid orbits similar to that of 1221 Amor",
            "orbit_class_range": "1.017 AU < q (perihelion) < 1.3 AU"
        }
    },
    "is_sentry_object": false
}